<?xml version='1.0' encoding='utf-8'?>
<gpx version="1.1" creator="SailTropics Portolano" xmlns="http://www.topografix.com/GPX/1/1"><metadata><name>anguilla — ancoraggi</name><desc>Waypoint ancoraggi anguilla — WGS84 — Portolano SailTropics</desc><time>2026-08-28T20:12:20.089901+00:00</time><author><name>SailTropics</name></author><link href="https://ghitabbino.github.io/portolano/">Portolano</link></metadata><wpt lat="18.199300" lon="-63.094380"><name>Road Bay (Sandy Ground)</name><desc>Road Bay (Sandy Ground) — anc-road-bay</desc><sym>Anchor</sym><type>Anchorage</type><extensions><slug>anc-road-bay</slug></extensions></wpt><wpt lat="18.220000" lon="-63.070000"><name>Crocus Bay</name><desc>Crocus Bay — anc-crocus-bay</desc><sym>Anchor</sym><type>Anchorage</type><extensions><slug>anc-crocus-bay</slug></extensions></wpt></gpx>