<?xml version='1.0' encoding='utf-8'?>
<gpx version="1.1" creator="SailTropics Portolano" xmlns="http://www.topografix.com/GPX/1/1"><metadata><name>antigua-barbuda — ancoraggi</name><desc>Waypoint ancoraggi antigua-barbuda — WGS84 — Portolano SailTropics</desc><time>2026-08-31T11:48:23.349115+00:00</time><author><name>SailTropics</name></author><link href="https://ghitabbino.github.io/portolano/">Portolano</link></metadata><wpt lat="17.004250" lon="-61.763650"><name>English Harbour (Freeman)</name><desc>English Harbour (Freeman) — anc-english-harbour</desc><sym>Anchor</sym><type>Anchorage</type><extensions><slug>anc-english-harbour</slug></extensions></wpt><wpt lat="17.014740" lon="-61.774640"><name>Falmouth Harbour</name><desc>Falmouth Harbour — anc-falmouth</desc><sym>Anchor</sym><type>Anchorage</type><extensions><slug>anc-falmouth</slug></extensions></wpt><wpt lat="17.053000" lon="-61.868000"><name>Jolly Harbour</name><desc>Jolly Harbour — anc-jolly</desc><sym>Anchor</sym><type>Anchorage</type><extensions><slug>anc-jolly</slug></extensions></wpt></gpx>