<?xml version='1.0' encoding='utf-8'?>
<gpx version="1.1" creator="SailTropics Portolano" xmlns="http://www.topografix.com/GPX/1/1"><metadata><name>aruba — ancoraggi</name><desc>Waypoint ancoraggi aruba — WGS84 — Portolano SailTropics</desc><time>2026-08-28T15:21:01.278541+00:00</time><author><name>SailTropics</name></author><link href="https://ghitabbino.github.io/portolano/">Portolano</link></metadata><wpt lat="12.516900" lon="-70.039100"><name>Wind Creek Marina — ingresso</name><desc>Wind Creek Marina — ingresso — anc-wind-creek</desc><sym>Anchor</sym><type>Anchorage</type><extensions><slug>anc-wind-creek</slug></extensions></wpt><wpt lat="12.521000" lon="-70.044800"><name>Oranjestad — molo dogana H</name><desc>Oranjestad — molo dogana H — anc-hans-dock</desc><sym>Anchor</sym><type>Anchorage</type><extensions><slug>anc-hans-dock</slug></extensions></wpt><wpt lat="12.480600" lon="-70.007200"><name>Barcadera — boa d’ingresso</name><desc>Barcadera — boa d’ingresso — anc-barcadera-ingresso</desc><sym>Anchor</sym><type>Anchorage</type><extensions><slug>anc-barcadera-ingresso</slug></extensions></wpt><wpt lat="12.480000" lon="-70.000600"><name>Barcadera — molo dogana</name><desc>Barcadera — molo dogana — anc-barcadera-dogana</desc><sym>Anchor</sym><type>Anchorage</type><extensions><slug>anc-barcadera-dogana</slug></extensions></wpt><wpt lat="12.508500" lon="-70.034100"><name>Surfside Beach</name><desc>Surfside Beach — anc-surfside</desc><sym>Anchor</sym><type>Anchorage</type><extensions><slug>anc-surfside</slug></extensions></wpt><wpt lat="12.578600" lon="-70.049300"><name>Hadicurari (darsena pescatori)</name><desc>Hadicurari (darsena pescatori) — anc-hadicurari</desc><sym>Anchor</sym><type>Anchorage</type><extensions><slug>anc-hadicurari</slug></extensions></wpt><wpt lat="12.601700" lon="-70.058300"><name>Malmok — relitto Antilla</name><desc>Malmok — relitto Antilla — anc-malmok-antilla</desc><sym>Anchor</sym><type>Anchorage</type><extensions><slug>anc-malmok-antilla</slug></extensions></wpt></gpx>