<?xml version='1.0' encoding='utf-8'?>
<gpx version="1.1" creator="SailTropics Portolano" xmlns="http://www.topografix.com/GPX/1/1"><metadata><name>barbados — ancoraggi</name><desc>Waypoint ancoraggi barbados — WGS84 — Portolano SailTropics</desc><time>2026-08-28T15:51:20.203228+00:00</time><author><name>SailTropics</name></author><link href="https://ghitabbino.github.io/portolano/">Portolano</link></metadata><wpt lat="13.078000" lon="-59.627500"><name>Carlisle Bay (ancoraggio princ</name><desc>Carlisle Bay (ancoraggio principale) — anc-carlisle-main</desc><sym>Anchor</sym><type>Anchorage</type><extensions><slug>anc-carlisle-main</slug></extensions></wpt><wpt lat="13.070000" lon="-59.634000"><name>Carlisle Bay Sud (Needham’s Po</name><desc>Carlisle Bay Sud (Needham’s Point) — anc-carlisle-south</desc><sym>Anchor</sym><type>Anchorage</type><extensions><slug>anc-carlisle-south</slug></extensions></wpt><wpt lat="13.106000" lon="-59.630000"><name>Bridgetown Deep Water Harbour </name><desc>Bridgetown Deep Water Harbour (POE, ingresso) — anc-bridgetown-dwh</desc><sym>Anchor</sym><type>Anchorage</type><extensions><slug>anc-bridgetown-dwh</slug></extensions></wpt><wpt lat="13.101000" lon="-59.627000"><name>Bridgetown Shallow Draught (ma</name><desc>Bridgetown Shallow Draught (marina yacht + dogana dedicata) — anc-shallow-draught</desc><sym>Anchor</sym><type>Anchorage</type><extensions><slug>anc-shallow-draught</slug></extensions></wpt><wpt lat="13.100000" lon="-59.619500"><name>The Careenage (Bridgetown cent</name><desc>The Careenage (Bridgetown centro) — anc-careenage</desc><sym>Anchor</sym><type>Anchorage</type><extensions><slug>anc-careenage</slug></extensions></wpt><wpt lat="13.264000" lon="-59.646500"><name>Port St. Charles (POE nord — a</name><desc>Port St. Charles (POE nord — ancoraggio esterno) — anc-psc-anch</desc><sym>Anchor</sym><type>Anchorage</type><extensions><slug>anc-psc-anch</slug></extensions></wpt><wpt lat="13.258500" lon="-59.642000"><name>Port Ferdinand Marina (nord-ov</name><desc>Port Ferdinand Marina (nord-ovest) — anc-port-ferdinand</desc><sym>Anchor</sym><type>Anchorage</type><extensions><slug>anc-port-ferdinand</slug></extensions></wpt><wpt lat="13.253000" lon="-59.645000"><name>Speightstown (costa ovest)</name><desc>Speightstown (costa ovest) — anc-speightstown</desc><sym>Anchor</sym><type>Anchorage</type><extensions><slug>anc-speightstown</slug></extensions></wpt><wpt lat="13.065500" lon="-59.541000"><name>Oistins Bay (costa sud — condi</name><desc>Oistins Bay (costa sud — condizionale) — anc-oistins</desc><sym>Anchor</sym><type>Anchorage</type><extensions><slug>anc-oistins</slug></extensions></wpt><wpt lat="13.247000" lon="-59.536000"><name>Bathsheba / Tent Bay (costa ES</name><desc>Bathsheba / Tent Bay (costa EST — NON ANCORABILE) — anc-bathsheba</desc><sym>Anchor</sym><type>Anchorage</type><extensions><slug>anc-bathsheba</slug></extensions></wpt></gpx>