<?xml version='1.0' encoding='utf-8'?>
<gpx version="1.1" creator="SailTropics Portolano" xmlns="http://www.topografix.com/GPX/1/1"><metadata><name>bonaire — ancoraggi</name><desc>Waypoint ancoraggi bonaire — WGS84 — Portolano SailTropics</desc><time>2026-08-28T15:51:20.203398+00:00</time><author><name>SailTropics</name></author><link href="https://ghitabbino.github.io/portolano/">Portolano</link></metadata><wpt lat="12.155700" lon="-68.280400"><name>Campo boe Kralendijk — Town Mo</name><desc>Campo boe Kralendijk — Town Moorings (overnight) — anc-kralendijk-boe</desc><sym>Anchor</sym><type>Anchorage</type><extensions><slug>anc-kralendijk-boe</slug></extensions></wpt><wpt lat="12.162300" lon="-68.288700"><name>Harbour Village Marina — ingre</name><desc>Harbour Village Marina — ingresso — anc-harbour-village</desc><sym>Anchor</sym><type>Anchorage</type><extensions><slug>anc-harbour-village</slug></extensions></wpt><wpt lat="12.160500" lon="-68.285000"><name>Klein Bonaire — No Name Beach </name><desc>Klein Bonaire — No Name Beach (day-use) — anc-klein-bonaire</desc><sym>Anchor</sym><type>Anchorage</type><extensions><slug>anc-klein-bonaire</slug></extensions></wpt><wpt lat="12.105000" lon="-68.290000"><name>Salt Pier — boa day-use</name><desc>Salt Pier — boa day-use — anc-salt-pier</desc><sym>Anchor</sym><type>Anchorage</type><extensions><slug>anc-salt-pier</slug></extensions></wpt></gpx>