<?xml version='1.0' encoding='utf-8'?>
<gpx version="1.1" creator="SailTropics Portolano" xmlns="http://www.topografix.com/GPX/1/1"><metadata><name>cayman — ancoraggi</name><desc>Waypoint ancoraggi cayman — WGS84 — Portolano SailTropics</desc><time>2026-08-31T11:48:23.350431+00:00</time><author><name>SailTropics</name></author><link href="https://ghitabbino.github.io/portolano/">Portolano</link></metadata><wpt lat="19.302800" lon="-81.358800"><name>Barcadere Marina — George Town</name><desc>Barcadere Marina — George Town</desc><sym>Anchor</sym><type>Anchorage</type><extensions><slug /></extensions></wpt><wpt lat="19.294900" lon="-81.328200"><name>Harbour House — Prospect</name><desc>Harbour House — Prospect</desc><sym>Anchor</sym><type>Anchorage</type><extensions><slug /></extensions></wpt><wpt lat="19.714000" lon="-79.849000"><name>Cayman Brac — Scott’s Bay</name><desc>Cayman Brac — Scott’s Bay</desc><sym>Anchor</sym><type>Anchorage</type><extensions><slug /></extensions></wpt><wpt lat="19.659400" lon="-80.083800"><name>Little Cayman — South Town</name><desc>Little Cayman — South Town</desc><sym>Anchor</sym><type>Anchorage</type><extensions><slug /></extensions></wpt></gpx>