<?xml version='1.0' encoding='utf-8'?>
<gpx version="1.1" creator="SailTropics Portolano" xmlns="http://www.topografix.com/GPX/1/1"><metadata><name>curacao — ancoraggi</name><desc>Waypoint ancoraggi curacao — WGS84 — Portolano SailTropics</desc><time>2026-08-28T20:12:20.091548+00:00</time><author><name>SailTropics</name></author><link href="https://ghitabbino.github.io/portolano/">Portolano</link></metadata><wpt lat="12.080600" lon="-68.862400"><name>Spaanse Water — zona A</name><desc>Spaanse Water — zona A — anc-spanish-water-a</desc><sym>Anchor</sym><type>Anchorage</type><extensions><slug>anc-spanish-water-a</slug></extensions></wpt><wpt lat="12.062600" lon="-68.853000"><name>Spaanse Water — entrata laguna</name><desc>Spaanse Water — entrata laguna — anc-spanish-water-entrata</desc><sym>Anchor</sym><type>Anchorage</type><extensions><slug>anc-spanish-water-entrata</slug></extensions></wpt><wpt lat="12.045000" lon="-68.828000"><name>Fuik Baai — lato ovest</name><desc>Fuik Baai — lato ovest — anc-fuik</desc><sym>Anchor</sym><type>Anchorage</type><extensions><slug>anc-fuik</slug></extensions></wpt><wpt lat="12.268000" lon="-69.125000"><name>Santa Martha Bay (laguna)</name><desc>Santa Martha Bay (laguna) — anc-santa-martha</desc><sym>Anchor</sym><type>Anchorage</type><extensions><slug>anc-santa-martha</slug></extensions></wpt><wpt lat="12.122000" lon="-68.968000"><name>Piscadera Baai</name><desc>Piscadera Baai — anc-piscadera</desc><sym>Anchor</sym><type>Anchorage</type><extensions><slug>anc-piscadera</slug></extensions></wpt><wpt lat="12.307000" lon="-69.152000"><name>Playa Santu Pretu / Santa Cruz</name><desc>Playa Santu Pretu / Santa Cruz — anc-santa-cruz</desc><sym>Anchor</sym><type>Anchorage</type><extensions><slug>anc-santa-cruz</slug></extensions></wpt><wpt lat="11.990000" lon="-68.647000"><name>Klein Curaçao (lato ovest)</name><desc>Klein Curaçao (lato ovest) — anc-klein-curacao</desc><sym>Anchor</sym><type>Anchorage</type><extensions><slug>anc-klein-curacao</slug></extensions></wpt></gpx>