<?xml version='1.0' encoding='utf-8'?>
<gpx version="1.1" creator="SailTropics Portolano" xmlns="http://www.topografix.com/GPX/1/1"><metadata><name>giamaica — ancoraggi</name><desc>Waypoint ancoraggi giamaica — WGS84 — Portolano SailTropics</desc><time>2026-08-28T20:12:20.091841+00:00</time><author><name>SailTropics</name></author><link href="https://ghitabbino.github.io/portolano/">Portolano</link></metadata><wpt lat="18.180500" lon="-76.453800"><name>Errol Flynn Marina — Port Anto</name><desc>Errol Flynn Marina — Port Antonio</desc><sym>Anchor</sym><type>Anchorage</type><extensions><slug /></extensions></wpt><wpt lat="18.462000" lon="-77.942000"><name>Montego Bay Yacht Club</name><desc>Montego Bay Yacht Club</desc><sym>Anchor</sym><type>Anchorage</type><extensions><slug /></extensions></wpt><wpt lat="17.945400" lon="-76.772300"><name>Royal Jamaica YC — Kingston</name><desc>Royal Jamaica YC — Kingston</desc><sym>Anchor</sym><type>Anchorage</type><extensions><slug /></extensions></wpt><wpt lat="18.403000" lon="-76.949000"><name>Oracabessa</name><desc>Oracabessa</desc><sym>Anchor</sym><type>Anchorage</type><extensions><slug /></extensions></wpt><wpt lat="18.411000" lon="-77.107500"><name>Ocho Rios</name><desc>Ocho Rios</desc><sym>Anchor</sym><type>Anchorage</type><extensions><slug /></extensions></wpt><wpt lat="17.883000" lon="-76.342000"><name>Bowden Harbour</name><desc>Bowden Harbour</desc><sym>Anchor</sym><type>Anchorage</type><extensions><slug /></extensions></wpt></gpx>