<?xml version='1.0' encoding='utf-8'?>
<gpx version="1.1" creator="SailTropics Portolano" xmlns="http://www.topografix.com/GPX/1/1"><metadata><name>grenada — ancoraggi</name><desc>Waypoint ancoraggi grenada — WGS84 — Portolano SailTropics</desc><time>2026-08-28T15:21:01.280129+00:00</time><author><name>SailTropics</name></author><link href="https://ghitabbino.github.io/portolano/">Portolano</link></metadata><wpt lat="12.046000" lon="-61.752000"><name>St George’s — rada del Lagoon</name><desc>St George’s — rada del Lagoon — anc-st-georges</desc><sym>Anchor</sym><type>Anchorage</type><extensions><slug>anc-st-georges</slug></extensions></wpt><wpt lat="12.044800" lon="-61.748700"><name>Port Louis Marina</name><desc>Port Louis Marina — anc-port-louis</desc><sym>Anchor</sym><type>Anchorage</type><extensions><slug>anc-port-louis</slug></extensions></wpt><wpt lat="12.054000" lon="-61.750000"><name>Carenage (bacino nord)</name><desc>Carenage (bacino nord) — anc-carenage</desc><sym>Anchor</sym><type>Anchorage</type><extensions><slug>anc-carenage</slug></extensions></wpt><wpt lat="11.995200" lon="-61.763000"><name>Prickly Bay</name><desc>Prickly Bay — anc-prickly-bay</desc><sym>Anchor</sym><type>Anchorage</type><extensions><slug>anc-prickly-bay</slug></extensions></wpt><wpt lat="12.004200" lon="-61.751900"><name>Mount Hartman / Secret Harbour</name><desc>Mount Hartman / Secret Harbour — anc-mount-hartman</desc><sym>Anchor</sym><type>Anchorage</type><extensions><slug>anc-mount-hartman</slug></extensions></wpt><wpt lat="12.000300" lon="-61.745300"><name>Clarkes Court / Woburn</name><desc>Clarkes Court / Woburn — anc-clarkes-court</desc><sym>Anchor</sym><type>Anchorage</type><extensions><slug>anc-clarkes-court</slug></extensions></wpt><wpt lat="12.001700" lon="-61.741700"><name>Hog Island</name><desc>Hog Island — anc-hog-island</desc><sym>Anchor</sym><type>Anchorage</type><extensions><slug>anc-hog-island</slug></extensions></wpt><wpt lat="12.073000" lon="-61.754200"><name>Grand Mal Bay</name><desc>Grand Mal Bay — anc-grand-mal</desc><sym>Anchor</sym><type>Anchorage</type><extensions><slug>anc-grand-mal</slug></extensions></wpt><wpt lat="12.062000" lon="-61.758000"><name>Molinere MPA (solo boe)</name><desc>Molinere MPA (solo boe) — anc-molinere-mpa</desc><sym>Anchor</sym><type>Anchorage</type><extensions><slug>anc-molinere-mpa</slug></extensions></wpt><wpt lat="12.230000" lon="-61.730000"><name>Gouyave</name><desc>Gouyave — anc-gouyave</desc><sym>Anchor</sym><type>Anchorage</type><extensions><slug>anc-gouyave</slug></extensions></wpt><wpt lat="12.218000" lon="-61.635000"><name>Sauteurs Bay</name><desc>Sauteurs Bay — anc-sauteurs</desc><sym>Anchor</sym><type>Anchorage</type><extensions><slug>anc-sauteurs</slug></extensions></wpt><wpt lat="11.998000" lon="-61.758000"><name>True Blue Bay</name><desc>True Blue Bay — anc-true-blue</desc><sym>Anchor</sym><type>Anchorage</type><extensions><slug>anc-true-blue</slug></extensions></wpt></gpx>