<?xml version='1.0' encoding='utf-8'?>
<gpx version="1.1" creator="SailTropics Portolano" xmlns="http://www.topografix.com/GPX/1/1"><metadata><name>guadalupa — ancoraggi</name><desc>Waypoint ancoraggi guadalupa — WGS84 — Portolano SailTropics</desc><time>2026-08-30T16:26:14.900104+00:00</time><author><name>SailTropics</name></author><link href="https://ghitabbino.github.io/portolano/">Portolano</link></metadata><wpt lat="16.306500" lon="-61.796500"><name>Deshaies</name><desc>Deshaies — anc-deshaies</desc><sym>Anchor</sym><type>Anchorage</type><extensions><slug>anc-deshaies</slug></extensions></wpt><wpt lat="16.329300" lon="-61.008600"><name>Désirade — Baie Mahault</name><desc>Désirade — Baie Mahault — anc-desireade</desc><sym>Anchor</sym><type>Anchorage</type><extensions><slug>anc-desireade</slug></extensions></wpt><wpt lat="16.199000" lon="-61.491000"><name>Îlet du Gosier</name><desc>Îlet du Gosier — anc-ilet-gosier</desc><sym>Anchor</sym><type>Anchorage</type><extensions><slug>anc-ilet-gosier</slug></extensions></wpt><wpt lat="15.868000" lon="-61.582000"><name>Les Saintes — Bourg de Terre-d</name><desc>Les Saintes — Bourg de Terre-de-Haut — anc-les-saintes</desc><sym>Anchor</sym><type>Anchorage</type><extensions><slug>anc-les-saintes</slug></extensions></wpt><wpt lat="16.172000" lon="-61.780000"><name>Malendure — Îlets Pigeon (Rése</name><desc>Malendure — Îlets Pigeon (Réserve Cousteau) — anc-malendure-cousteau</desc><sym>Anchor</sym><type>Anchorage</type><extensions><slug>anc-malendure-cousteau</slug></extensions></wpt><wpt lat="15.970000" lon="-61.018000"><name>Marie-Galante — Saint-Louis</name><desc>Marie-Galante — Saint-Louis — anc-marie-galante</desc><sym>Anchor</sym><type>Anchorage</type><extensions><slug>anc-marie-galante</slug></extensions></wpt><wpt lat="16.170000" lon="-61.110000"><name>Petite Terre</name><desc>Petite Terre — anc-petite-terre</desc><sym>Anchor</sym><type>Anchorage</type><extensions><slug>anc-petite-terre</slug></extensions></wpt><wpt lat="16.231000" lon="-61.534000"><name>Pointe-à-Pitre — Marina Bas-du</name><desc>Pointe-à-Pitre — Marina Bas-du-Fort — anc-pointe-a-pitre</desc><sym>Anchor</sym><type>Anchorage</type><extensions><slug>anc-pointe-a-pitre</slug></extensions></wpt><wpt lat="16.008000" lon="-61.738000"><name>Ravine Paul Thomas (Basse-Terr</name><desc>Ravine Paul Thomas (Basse-Terre) — anc-ravine-paul-thomas</desc><sym>Anchor</sym><type>Anchorage</type><extensions><slug>anc-ravine-paul-thomas</slug></extensions></wpt><wpt lat="16.245000" lon="-61.281000"><name>Saint-François</name><desc>Saint-François — anc-saint-francois</desc><sym>Anchor</sym><type>Anchorage</type><extensions><slug>anc-saint-francois</slug></extensions></wpt></gpx>