<?xml version='1.0' encoding='utf-8'?>
<gpx version="1.1" creator="SailTropics Portolano" xmlns="http://www.topografix.com/GPX/1/1"><metadata><name>haiti — ancoraggi</name><desc>Waypoint ancoraggi haiti — WGS84 — Portolano SailTropics</desc><time>2026-08-28T15:39:53.863439+00:00</time><author><name>SailTropics</name></author><link href="https://ghitabbino.github.io/portolano/">Portolano</link></metadata><wpt lat="18.105000" lon="-73.695000"><name>Île-à-Vache — Port Morgan</name><desc>Île-à-Vache — Port Morgan — anc-port-morgan</desc><sym>Anchor</sym><type>Anchorage</type><extensions><slug>anc-port-morgan</slug></extensions></wpt></gpx>