<?xml version='1.0' encoding='utf-8'?>
<gpx version="1.1" creator="SailTropics Portolano" xmlns="http://www.topografix.com/GPX/1/1"><metadata><name>honduras — ancoraggi</name><desc>Waypoint ancoraggi honduras — WGS84 — Portolano SailTropics</desc><time>2026-08-31T11:27:58.865740+00:00</time><author><name>SailTropics</name></author><link href="https://ghitabbino.github.io/portolano/">Portolano</link></metadata><wpt lat="16.352000" lon="-86.438000"><name>French Harbour</name><desc>French Harbour — anc-french-harbour</desc><sym>Anchor</sym><type>Anchorage</type><extensions><slug>anc-french-harbour</slug></extensions></wpt><wpt lat="16.097000" lon="-86.896000"><name>Utila harbour</name><desc>Utila harbour — anc-utila</desc><sym>Anchor</sym><type>Anchorage</type><extensions><slug>anc-utila</slug></extensions></wpt><wpt lat="16.440000" lon="-85.875000"><name>Guanaja Bonacca</name><desc>Guanaja Bonacca — anc-guanaja</desc><sym>Anchor</sym><type>Anchorage</type><extensions><slug>anc-guanaja</slug></extensions></wpt></gpx>