<?xml version='1.0' encoding='utf-8'?>
<gpx version="1.1" creator="SailTropics Portolano" xmlns="http://www.topografix.com/GPX/1/1"><metadata><name>martinica — ancoraggi</name><desc>Waypoint ancoraggi martinica — WGS84 — Portolano SailTropics</desc><time>2026-08-29T10:21:48.004284+00:00</time><author><name>SailTropics</name></author><link href="https://ghitabbino.github.io/portolano/">Portolano</link></metadata><wpt lat="14.492600" lon="-61.090300"><name>Anse Noire / Anse Dufour</name><desc>Anse Noire / Anse Dufour — anc-anse-noire</desc><sym>Anchor</sym><type>Anchorage</type><extensions><slug>anc-anse-noire</slug></extensions></wpt><wpt lat="14.613000" lon="-60.902000"><name>Fonds-Blancs</name><desc>Fonds-Blancs</desc><sym>Anchor</sym><type>Anchorage</type><extensions><slug /></extensions></wpt><wpt lat="14.552000" lon="-61.065000"><name>Baie de Genipa — la tranquilla</name><desc>Baie de Genipa — la tranquilla — anc-genipa</desc><sym>Anchor</sym><type>Anchorage</type><extensions><slug>anc-genipa</slug></extensions></wpt><wpt lat="14.480500" lon="-61.088500"><name>Grande Anse d’Arlet</name><desc>Grande Anse d’Arlet — anc-grande-anse-arlet</desc><sym>Anchor</sym><type>Anchorage</type><extensions><slug>anc-grande-anse-arlet</slug></extensions></wpt><wpt lat="14.463600" lon="-60.861000"><name>Le Marin Est/Sud</name><desc>Le Marin Est/Sud — anc-marin-est</desc><sym>Anchor</sym><type>Anchorage</type><extensions><slug>anc-marin-est</slug></extensions></wpt><wpt lat="14.594100" lon="-60.870600"><name>Anse Meurnier</name><desc>Anse Meurnier — anc-meurnier</desc><sym>Anchor</sym><type>Anchorage</type><extensions><slug>anc-meurnier</slug></extensions></wpt><wpt lat="14.507200" lon="-61.100300"><name>Anse Mitan</name><desc>Anse Mitan — anc-mitan</desc><sym>Anchor</sym><type>Anchorage</type><extensions><slug>anc-mitan</slug></extensions></wpt><wpt lat="14.473500" lon="-61.082700"><name>Petite Anse d’Arlet</name><desc>Petite Anse d’Arlet — anc-petite-anse-arlet</desc><sym>Anchor</sym><type>Anchorage</type><extensions><slug>anc-petite-anse-arlet</slug></extensions></wpt><wpt lat="14.741000" lon="-61.177000"><name>Saint-Pierre</name><desc>Saint-Pierre — anc-saint-pierre</desc><sym>Anchor</sym><type>Anchorage</type><extensions><slug>anc-saint-pierre</slug></extensions></wpt><wpt lat="14.438300" lon="-60.885000"><name>Sainte-Anne — il classico</name><desc>Sainte-Anne — il classico — anc-sainte-anne</desc><sym>Anchor</sym><type>Anchorage</type><extensions><slug>anc-sainte-anne</slug></extensions></wpt></gpx>