<?xml version='1.0' encoding='utf-8'?>
<gpx version="1.1" creator="SailTropics Portolano" xmlns="http://www.topografix.com/GPX/1/1"><metadata><name>montserrat — ancoraggi</name><desc>Waypoint ancoraggi montserrat — WGS84 — Portolano SailTropics</desc><time>2026-08-28T20:12:20.092667+00:00</time><author><name>SailTropics</name></author><link href="https://ghitabbino.github.io/portolano/">Portolano</link></metadata><wpt lat="16.817000" lon="-62.213000"><name>Little Bay</name><desc>Little Bay — anc-little-bay-msr</desc><sym>Anchor</sym><type>Anchorage</type><extensions><slug>anc-little-bay-msr</slug></extensions></wpt></gpx>