<?xml version='1.0' encoding='utf-8'?>
<gpx version="1.1" creator="SailTropics Portolano" xmlns="http://www.topografix.com/GPX/1/1"><metadata><name>porto-rico — ancoraggi</name><desc>Waypoint ancoraggi porto-rico — WGS84 — Portolano SailTropics</desc><time>2026-08-30T16:12:15.013811+00:00</time><author><name>SailTropics</name></author><link href="https://ghitabbino.github.io/portolano/">Portolano</link></metadata><wpt lat="18.302700" lon="-65.286300"><name>Ensenada Honda — Culebra</name><desc>Ensenada Honda — Culebra</desc><sym>Anchor</sym><type>Anchorage</type><extensions><slug /></extensions></wpt><wpt lat="18.331700" lon="-65.318100"><name>Bahía Flamenco — Culebra</name><desc>Bahía Flamenco — Culebra</desc><sym>Anchor</sym><type>Anchorage</type><extensions><slug /></extensions></wpt><wpt lat="18.097200" lon="-65.470800"><name>Esperanza — Vieques</name><desc>Esperanza — Vieques</desc><sym>Anchor</sym><type>Anchorage</type><extensions><slug /></extensions></wpt><wpt lat="18.348600" lon="-65.568100"><name>Palomino — Cordillera</name><desc>Palomino — Cordillera</desc><sym>Anchor</sym><type>Anchorage</type><extensions><slug /></extensions></wpt><wpt lat="18.452200" lon="-66.114200"><name>San Juan Bay</name><desc>San Juan Bay</desc><sym>Anchor</sym><type>Anchorage</type><extensions><slug /></extensions></wpt><wpt lat="17.894700" lon="-66.518900"><name>Caja de Muertos — Ponce</name><desc>Caja de Muertos — Ponce</desc><sym>Anchor</sym><type>Anchorage</type><extensions><slug /></extensions></wpt><wpt lat="17.973600" lon="-67.046700"><name>Guánica / La Parguera</name><desc>Guánica / La Parguera</desc><sym>Anchor</sym><type>Anchorage</type><extensions><slug /></extensions></wpt></gpx>