<?xml version='1.0' encoding='utf-8'?>
<gpx version="1.1" creator="SailTropics Portolano" xmlns="http://www.topografix.com/GPX/1/1"><metadata><name>repubblica-dominicana — ancoraggi</name><desc>Waypoint ancoraggi repubblica-dominicana — WGS84 — Portolano SailTropics</desc><time>2026-08-28T15:21:01.281043+00:00</time><author><name>SailTropics</name></author><link href="https://ghitabbino.github.io/portolano/">Portolano</link></metadata><wpt lat="19.902600" lon="-70.954200"><name>Luperón — Puerto Blanco</name><desc>Luperón — Puerto Blanco</desc><sym>Anchor</sym><type>Anchorage</type><extensions><slug /></extensions></wpt><wpt lat="19.827200" lon="-70.731600"><name>Ocean World — Cofresi</name><desc>Ocean World — Cofresi</desc><sym>Anchor</sym><type>Anchorage</type><extensions><slug /></extensions></wpt><wpt lat="19.194300" lon="-69.355400"><name>Samaná — Puerto Bahía</name><desc>Samaná — Puerto Bahía</desc><sym>Anchor</sym><type>Anchorage</type><extensions><slug /></extensions></wpt><wpt lat="18.501800" lon="-68.381500"><name>Cap Cana</name><desc>Cap Cana</desc><sym>Anchor</sym><type>Anchorage</type><extensions><slug /></extensions></wpt><wpt lat="18.397600" lon="-68.900400"><name>Casa de Campo</name><desc>Casa de Campo</desc><sym>Anchor</sym><type>Anchorage</type><extensions><slug /></extensions></wpt><wpt lat="18.445500" lon="-69.624300"><name>Boca Chica</name><desc>Boca Chica</desc><sym>Anchor</sym><type>Anchorage</type><extensions><slug /></extensions></wpt><wpt lat="18.105000" lon="-73.695000"><name>Ile-a-Vache — Port Morgan</name><desc>Ile-a-Vache — Port Morgan</desc><sym>Anchor</sym><type>Anchorage</type><extensions><slug /></extensions></wpt></gpx>