<?xml version='1.0' encoding='utf-8'?>
<gpx version="1.1" creator="SailTropics Portolano" xmlns="http://www.topografix.com/GPX/1/1"><metadata><name>saba — ancoraggi</name><desc>Waypoint ancoraggi saba — WGS84 — Portolano SailTropics</desc><time>2026-08-29T13:30:46.056019+00:00</time><author><name>SailTropics</name></author><link href="https://ghitabbino.github.io/portolano/">Portolano</link></metadata><wpt lat="17.617000" lon="-63.238000"><name>Fort Bay</name><desc>Fort Bay — anc-fort-bay</desc><sym>Anchor</sym><type>Anchorage</type><extensions><slug>anc-fort-bay</slug></extensions></wpt><wpt lat="17.637000" lon="-63.253000"><name>Well’s Bay</name><desc>Well’s Bay — anc-wells-bay</desc><sym>Anchor</sym><type>Anchorage</type><extensions><slug>anc-wells-bay</slug></extensions></wpt></gpx>