<?xml version='1.0' encoding='utf-8'?>
<gpx version="1.1" creator="SailTropics Portolano" xmlns="http://www.topografix.com/GPX/1/1"><metadata><name>saint-martin — ancoraggi</name><desc>Waypoint ancoraggi saint-martin — WGS84 — Portolano SailTropics</desc><time>2026-08-30T16:12:15.014320+00:00</time><author><name>SailTropics</name></author><link href="https://ghitabbino.github.io/portolano/">Portolano</link></metadata><wpt lat="18.104000" lon="-63.010000"><name>Anse Marcel</name><desc>Anse Marcel — anc-anse-marcel</desc><sym>Anchor</sym><type>Anchorage</type><extensions><slug>anc-anse-marcel</slug></extensions></wpt><wpt lat="18.067000" lon="-63.048000"><name>Grand Case</name><desc>Grand Case — anc-grand-case</desc><sym>Anchor</sym><type>Anchorage</type><extensions><slug>anc-grand-case</slug></extensions></wpt><wpt lat="18.066000" lon="-63.082000"><name>Baie de Marigot</name><desc>Baie de Marigot — anc-marigot</desc><sym>Anchor</sym><type>Anchorage</type><extensions><slug>anc-marigot</slug></extensions></wpt><wpt lat="18.033000" lon="-63.097000"><name>Simpson Bay Lagoon</name><desc>Simpson Bay Lagoon — anc-simpson-bay</desc><sym>Anchor</sym><type>Anchorage</type><extensions><slug>anc-simpson-bay</slug></extensions></wpt></gpx>