<?xml version='1.0' encoding='utf-8'?>
<gpx version="1.1" creator="SailTropics Portolano" xmlns="http://www.topografix.com/GPX/1/1"><metadata><name>saint-barth — ancoraggi</name><desc>Waypoint ancoraggi saint-barth — WGS84 — Portolano SailTropics</desc><time>2026-08-28T20:12:20.093510+00:00</time><author><name>SailTropics</name></author><link href="https://ghitabbino.github.io/portolano/">Portolano</link></metadata><wpt lat="17.884000" lon="-62.866000"><name>Anse de Colombier</name><desc>Anse de Colombier — anc-colombier</desc><sym>Anchor</sym><type>Anchorage</type><extensions><slug>anc-colombier</slug></extensions></wpt><wpt lat="17.850000" lon="-62.933000"><name>Île Fourchue</name><desc>Île Fourchue — anc-fourchue</desc><sym>Anchor</sym><type>Anchorage</type><extensions><slug>anc-fourchue</slug></extensions></wpt><wpt lat="17.897000" lon="-62.851000"><name>Gustavia</name><desc>Gustavia — anc-gustavia</desc><sym>Anchor</sym><type>Anchorage</type><extensions><slug>anc-gustavia</slug></extensions></wpt></gpx>