<?xml version='1.0' encoding='utf-8'?>
<gpx version="1.1" creator="SailTropics Portolano" xmlns="http://www.topografix.com/GPX/1/1"><metadata><name>santa-lucia — ancoraggi</name><desc>Waypoint ancoraggi santa-lucia — WGS84 — Portolano SailTropics</desc><time>2026-08-28T15:39:53.864269+00:00</time><author><name>SailTropics</name></author><link href="https://ghitabbino.github.io/portolano/">Portolano</link></metadata><wpt lat="14.075580" lon="-60.951220"><name>IGY Rodney Bay Marina — ingres</name><desc>IGY Rodney Bay Marina — ingresso canale — anc-rodney-bay-marina</desc><sym>Anchor</sym><type>Anchorage</type><extensions><slug>anc-rodney-bay-marina</slug></extensions></wpt><wpt lat="14.081180" lon="-60.958900"><name>Rodney Bay — rada esterna</name><desc>Rodney Bay — rada esterna — anc-rodney-bay-outer</desc><sym>Anchor</sym><type>Anchorage</type><extensions><slug>anc-rodney-bay-outer</slug></extensions></wpt><wpt lat="14.090740" lon="-60.963520"><name>Gros Islet / Pigeon Island</name><desc>Gros Islet / Pigeon Island — anc-pigeon-island</desc><sym>Anchor</sym><type>Anchorage</type><extensions><slug>anc-pigeon-island</slug></extensions></wpt><wpt lat="13.966190" lon="-61.026670"><name>Marigot Bay — hurricane hole (</name><desc>Marigot Bay — hurricane hole (Zoëtry/Capella) — anc-marigot-inner</desc><sym>Anchor</sym><type>Anchorage</type><extensions><slug>anc-marigot-inner</slug></extensions></wpt><wpt lat="13.909700" lon="-61.096900"><name>Anse La Raye</name><desc>Anse La Raye — anc-anse-la-raye</desc><sym>Anchor</sym><type>Anchorage</type><extensions><slug>anc-anse-la-raye</slug></extensions></wpt><wpt lat="13.916690" lon="-61.066690"><name>Anse Cochon</name><desc>Anse Cochon — anc-anse-cochon</desc><sym>Anchor</sym><type>Anchorage</type><extensions><slug>anc-anse-cochon</slug></extensions></wpt><wpt lat="13.889000" lon="-61.079000"><name>Anse de Canaries (N del villag</name><desc>Anse de Canaries (N del villaggio) — anc-canaries</desc><sym>Anchor</sym><type>Anchorage</type><extensions><slug>anc-canaries</slug></extensions></wpt><wpt lat="13.863600" lon="-61.084400"><name>Anse Chastanet</name><desc>Anse Chastanet — anc-anse-chastanet</desc><sym>Anchor</sym><type>Anchorage</type><extensions><slug>anc-anse-chastanet</slug></extensions></wpt><wpt lat="13.850000" lon="-61.066670"><name>Soufrière / Rachette Point</name><desc>Soufrière / Rachette Point — anc-soufriere-rachette</desc><sym>Anchor</sym><type>Anchorage</type><extensions><slug>anc-soufriere-rachette</slug></extensions></wpt><wpt lat="13.843330" lon="-61.068330"><name>Malgretoute (sotto Petit Piton</name><desc>Malgretoute (sotto Petit Piton) — anc-malgretoute</desc><sym>Anchor</sym><type>Anchorage</type><extensions><slug>anc-malgretoute</slug></extensions></wpt><wpt lat="13.827000" lon="-61.064170"><name>Anse des Pitons / Jalousie (tr</name><desc>Anse des Pitons / Jalousie (tra i Pitons) — anc-anse-des-pitons</desc><sym>Anchor</sym><type>Anchorage</type><extensions><slug>anc-anse-des-pitons</slug></extensions></wpt></gpx>