<?xml version='1.0' encoding='utf-8'?>
<gpx version="1.1" creator="SailTropics Portolano" xmlns="http://www.topografix.com/GPX/1/1"><metadata><name>st-eustatius — ancoraggi</name><desc>Waypoint ancoraggi st-eustatius — WGS84 — Portolano SailTropics</desc><time>2026-08-30T16:12:15.014705+00:00</time><author><name>SailTropics</name></author><link href="https://ghitabbino.github.io/portolano/">Portolano</link></metadata><wpt lat="17.483000" lon="-62.983000"><name>Oranje Bay</name><desc>Oranje Bay — anc-oranje-bay</desc><sym>Anchor</sym><type>Anchorage</type><extensions><slug>anc-oranje-bay</slug></extensions></wpt></gpx>