<?xml version='1.0' encoding='utf-8'?>
<gpx version="1.1" creator="SailTropics Portolano" xmlns="http://www.topografix.com/GPX/1/1"><metadata><name>st-kitts-nevis — ancoraggi</name><desc>Waypoint ancoraggi st-kitts-nevis — WGS84 — Portolano SailTropics</desc><time>2026-08-31T10:35:08.709601+00:00</time><author><name>SailTropics</name></author><link href="https://ghitabbino.github.io/portolano/">Portolano</link></metadata><wpt lat="17.297000" lon="-62.718000"><name>Basseterre (Port Zante)</name><desc>Basseterre (Port Zante) — anc-basseterre</desc><sym>Anchor</sym><type>Anchorage</type><extensions><slug>anc-basseterre</slug></extensions></wpt><wpt lat="17.147000" lon="-62.617000"><name>Charlestown (Nevis)</name><desc>Charlestown (Nevis) — anc-charlestown</desc><sym>Anchor</sym><type>Anchorage</type><extensions><slug>anc-charlestown</slug></extensions></wpt><wpt lat="17.150000" lon="-62.590000"><name>Pinney’s Beach (Nevis)</name><desc>Pinney’s Beach (Nevis) — anc-pinneys</desc><sym>Anchor</sym><type>Anchorage</type><extensions><slug>anc-pinneys</slug></extensions></wpt><wpt lat="17.247000" lon="-62.700000"><name>Whitehouse Bay</name><desc>Whitehouse Bay — anc-whitehouse</desc><sym>Anchor</sym><type>Anchorage</type><extensions><slug>anc-whitehouse</slug></extensions></wpt></gpx>