<?xml version='1.0' encoding='utf-8'?>
<gpx version="1.1" creator="SailTropics Portolano" xmlns="http://www.topografix.com/GPX/1/1"><metadata><name>trinidad-tobago — ancoraggi</name><desc>Waypoint ancoraggi trinidad-tobago — WGS84 — Portolano SailTropics</desc><time>2026-08-30T16:26:14.901967+00:00</time><author><name>SailTropics</name></author><link href="https://ghitabbino.github.io/portolano/">Portolano</link></metadata><wpt lat="10.678500" lon="-61.636200"><name>Chaguaramas — ancoraggio canti</name><desc>Chaguaramas — ancoraggio cantieri — anc-chaguaramas</desc><sym>Anchor</sym><type>Anchorage</type><extensions><slug>anc-chaguaramas</slug></extensions></wpt><wpt lat="10.686400" lon="-61.638100"><name>CrewsInn — clearance yacht</name><desc>CrewsInn — clearance yacht — anc-crewsinn</desc><sym>Anchor</sym><type>Anchorage</type><extensions><slug>anc-crewsinn</slug></extensions></wpt><wpt lat="10.682800" lon="-61.620800"><name>Hart’s Cut Bay — boe TTSA</name><desc>Hart’s Cut Bay — boe TTSA — anc-harts-cut</desc><sym>Anchor</sym><type>Anchorage</type><extensions><slug>anc-harts-cut</slug></extensions></wpt><wpt lat="10.674700" lon="-61.568800"><name>Port of Spain — T&amp;T Yacht Club</name><desc>Port of Spain — T&amp;T Yacht Club — anc-port-of-spain</desc><sym>Anchor</sym><type>Anchorage</type><extensions><slug>anc-port-of-spain</slug></extensions></wpt><wpt lat="11.156200" lon="-60.841000"><name>Store Bay (Tobago)</name><desc>Store Bay (Tobago) — anc-store-bay</desc><sym>Anchor</sym><type>Anchorage</type><extensions><slug>anc-store-bay</slug></extensions></wpt><wpt lat="11.185300" lon="-60.738600"><name>Scarborough — clearance (Tobag</name><desc>Scarborough — clearance (Tobago) — anc-scarborough</desc><sym>Anchor</sym><type>Anchorage</type><extensions><slug>anc-scarborough</slug></extensions></wpt><wpt lat="11.323800" lon="-60.550000"><name>Charlotteville — Man-o-War Bay</name><desc>Charlotteville — Man-o-War Bay — anc-charlotteville</desc><sym>Anchor</sym><type>Anchorage</type><extensions><slug>anc-charlotteville</slug></extensions></wpt></gpx>