<?xml version='1.0' encoding='utf-8'?>
<gpx version="1.1" creator="SailTropics Portolano" xmlns="http://www.topografix.com/GPX/1/1"><metadata><name>turks-caicos — ancoraggi</name><desc>Waypoint ancoraggi turks-caicos — WGS84 — Portolano SailTropics</desc><time>2026-08-29T10:21:48.006189+00:00</time><author><name>SailTropics</name></author><link href="https://ghitabbino.github.io/portolano/">Portolano</link></metadata><wpt lat="21.742500" lon="-72.290800"><name>Sapodilla Bay (Providenciales)</name><desc>Sapodilla Bay (Providenciales) — anc-sapodilla-bay</desc><sym>Anchor</sym><type>Anchorage</type><extensions><slug>anc-sapodilla-bay</slug></extensions></wpt><wpt lat="21.735000" lon="-72.280000"><name>Southside / South Dock anchora</name><desc>Southside / South Dock anchorage (Providenciales) — anc-southside-provo</desc><sym>Anchor</sym><type>Anchorage</type><extensions><slug>anc-southside-provo</slug></extensions></wpt><wpt lat="21.784700" lon="-72.226700"><name>Turtle Cove Marina (Providenci</name><desc>Turtle Cove Marina (Providenciales) — anc-turtle-cove-marina</desc><sym>Anchor</sym><type>Anchorage</type><extensions><slug>anc-turtle-cove-marina</slug></extensions></wpt><wpt lat="21.818900" lon="-72.147000"><name>Blue Haven Marina – Leeward Go</name><desc>Blue Haven Marina – Leeward Going Through (Provo) — anc-blue-haven-leeward</desc><sym>Anchor</sym><type>Anchorage</type><extensions><slug>anc-blue-haven-leeward</slug></extensions></wpt><wpt lat="21.800000" lon="-72.205000"><name>Grace Bay – Princess Alexandra</name><desc>Grace Bay – Princess Alexandra NP — anc-grace-bay</desc><sym>Anchor</sym><type>Anchorage</type><extensions><slug>anc-grace-bay</slug></extensions></wpt><wpt lat="21.850000" lon="-72.150000"><name>Leeward Going Through → Pine C</name><desc>Leeward Going Through → Pine Cay / Water Cay — anc-pine-water-cay</desc><sym>Anchor</sym><type>Anchorage</type><extensions><slug>anc-pine-water-cay</slug></extensions></wpt><wpt lat="21.450000" lon="-72.000000"><name>West Caicos (Yankee Town / Lak</name><desc>West Caicos (Yankee Town / Lake Catherine) — anc-west-caicos</desc><sym>Anchor</sym><type>Anchorage</type><extensions><slug>anc-west-caicos</slug></extensions></wpt><wpt lat="21.488500" lon="-71.537800"><name>Cockburn Harbour (South Caicos</name><desc>Cockburn Harbour (South Caicos) — anc-cockburn-harbour-sc</desc><sym>Anchor</sym><type>Anchorage</type><extensions><slug>anc-cockburn-harbour-sc</slug></extensions></wpt><wpt lat="21.468800" lon="-71.148500"><name>Cockburn Town Roads (Grand Tur</name><desc>Cockburn Town Roads (Grand Turk) — anc-cockburn-town-grand-turk</desc><sym>Anchor</sym><type>Anchorage</type><extensions><slug>anc-cockburn-town-grand-turk</slug></extensions></wpt><wpt lat="21.340000" lon="-71.200000"><name>Salt Cay</name><desc>Salt Cay — anc-salt-cay</desc><sym>Anchor</sym><type>Anchorage</type><extensions><slug>anc-salt-cay</slug></extensions></wpt><wpt lat="21.460000" lon="-71.110000"><name>Gibbs Cay (Grand Turk)</name><desc>Gibbs Cay (Grand Turk) — anc-gibbs-cay</desc><sym>Anchor</sym><type>Anchorage</type><extensions><slug>anc-gibbs-cay</slug></extensions></wpt><wpt lat="21.390000" lon="-72.090000"><name>French Cay</name><desc>French Cay — anc-french-cay</desc><sym>Anchor</sym><type>Anchorage</type><extensions><slug>anc-french-cay</slug></extensions></wpt><wpt lat="21.320000" lon="-71.100000"><name>Big Sand Cay</name><desc>Big Sand Cay — anc-big-sand-cay</desc><sym>Anchor</sym><type>Anchorage</type><extensions><slug>anc-big-sand-cay</slug></extensions></wpt></gpx>