<?xml version='1.0' encoding='utf-8'?>
<gpx version="1.1" creator="SailTropics Portolano" xmlns="http://www.topografix.com/GPX/1/1"><metadata><name>virgin-islands — ancoraggi</name><desc>Waypoint ancoraggi virgin-islands — WGS84 — Portolano SailTropics</desc><time>2026-08-30T16:12:15.015370+00:00</time><author><name>SailTropics</name></author><link href="https://ghitabbino.github.io/portolano/">Portolano</link></metadata><wpt lat="18.317000" lon="-64.620000"><name>The Bight (Norman)</name><desc>The Bight (Norman) — anc-bight-norman</desc><sym>Anchor</sym><type>Anchorage</type><extensions><slug>anc-bight-norman</slug></extensions></wpt><wpt lat="18.330000" lon="-64.793000"><name>Cruz Bay (St John)</name><desc>Cruz Bay (St John) — anc-cruz-bay</desc><sym>Anchor</sym><type>Anchorage</type><extensions><slug>anc-cruz-bay</slug></extensions></wpt><wpt lat="18.447000" lon="-64.750000"><name>Great Harbour (Jost Van Dyke)</name><desc>Great Harbour (Jost Van Dyke) — anc-great-harbour-jvd</desc><sym>Anchor</sym><type>Anchorage</type><extensions><slug>anc-great-harbour-jvd</slug></extensions></wpt><wpt lat="18.423000" lon="-64.647000"><name>Nanny Cay (Tortola)</name><desc>Nanny Cay (Tortola) — anc-nanny-cay</desc><sym>Anchor</sym><type>Anchorage</type><extensions><slug>anc-nanny-cay</slug></extensions></wpt><wpt lat="18.497000" lon="-64.377000"><name>North Sound (Virgin Gorda)</name><desc>North Sound (Virgin Gorda) — anc-north-sound</desc><sym>Anchor</sym><type>Anchorage</type><extensions><slug>anc-north-sound</slug></extensions></wpt><wpt lat="18.387000" lon="-64.697000"><name>Soper’s Hole (West End)</name><desc>Soper’s Hole (West End) — anc-sopers-hole</desc><sym>Anchor</sym><type>Anchorage</type><extensions><slug>anc-sopers-hole</slug></extensions></wpt><wpt lat="18.433000" lon="-64.433000"><name>The Baths (Virgin Gorda)</name><desc>The Baths (Virgin Gorda) — anc-the-baths</desc><sym>Anchor</sym><type>Anchorage</type><extensions><slug>anc-the-baths</slug></extensions></wpt><wpt lat="18.443000" lon="-64.762000"><name>White Bay (Jost Van Dyke)</name><desc>White Bay (Jost Van Dyke) — anc-white-bay-jvd</desc><sym>Anchor</sym><type>Anchorage</type><extensions><slug>anc-white-bay-jvd</slug></extensions></wpt></gpx>