<?xml version='1.0' encoding='utf-8'?>
<gpx version="1.1" creator="SailTropics Portolano" xmlns="http://www.topografix.com/GPX/1/1"><metadata><name>cuba — ancoraggi</name><desc>Waypoint ancoraggi cuba — WGS84 — Portolano SailTropics</desc><time>2026-08-28T12:10:46.165071+00:00</time><author><name>SailTropics</name></author><link href="https://ghitabbino.github.io/portolano/">Portolano</link></metadata><wpt lat="21.901000" lon="-84.908000"><name>Los Morros (Cabo San Antonio)</name><desc>Los Morros (Cabo San Antonio) — anc-los-morros</desc><sym>Anchor</sym><type>Anchorage</type><extensions><slug>anc-los-morros</slug></extensions></wpt><wpt lat="22.884000" lon="-83.524000"><name>Cayo Levisa</name><desc>Cayo Levisa — anc-cayo-levisa</desc><sym>Anchor</sym><type>Anchorage</type><extensions><slug>anc-cayo-levisa</slug></extensions></wpt><wpt lat="23.087000" lon="-82.497000"><name>Marina Hemingway</name><desc>Marina Hemingway — anc-hemingway</desc><sym>Anchor</sym><type>Anchorage</type><extensions><slug>anc-hemingway</slug></extensions></wpt><wpt lat="21.621000" lon="-81.559000"><name>Cayo Largo Marina</name><desc>Cayo Largo Marina — anc-cayo-largo</desc><sym>Anchor</sym><type>Anchorage</type><extensions><slug>anc-cayo-largo</slug></extensions></wpt><wpt lat="21.560000" lon="-81.840000"><name>Canarreos — Cayo Campos</name><desc>Canarreos — Cayo Campos — anc-cayo-campos</desc><sym>Anchor</sym><type>Anchorage</type><extensions><slug>anc-cayo-campos</slug></extensions></wpt><wpt lat="22.126000" lon="-80.455000"><name>Cienfuegos</name><desc>Cienfuegos — anc-cienfuegos</desc><sym>Anchor</sym><type>Anchorage</type><extensions><slug>anc-cienfuegos</slug></extensions></wpt><wpt lat="21.737000" lon="-79.994000"><name>Trinidad / Casilda</name><desc>Trinidad / Casilda — anc-casilda</desc><sym>Anchor</sym><type>Anchorage</type><extensions><slug>anc-casilda</slug></extensions></wpt><wpt lat="19.968000" lon="-75.865000"><name>Santiago de Cuba</name><desc>Santiago de Cuba — anc-santiago</desc><sym>Anchor</sym><type>Anchorage</type><extensions><slug>anc-santiago</slug></extensions></wpt><wpt lat="21.071000" lon="-75.954000"><name>Puerto Vita</name><desc>Puerto Vita — anc-puerto-vita</desc><sym>Anchor</sym><type>Anchorage</type><extensions><slug>anc-puerto-vita</slug></extensions></wpt><wpt lat="22.590000" lon="-78.670000"><name>Cayo Guillermo</name><desc>Cayo Guillermo — anc-cayo-guillermo</desc><sym>Anchor</sym><type>Anchorage</type><extensions><slug>anc-cayo-guillermo</slug></extensions></wpt></gpx>