<?xml version='1.0' encoding='utf-8'?>
<gpx version="1.1" creator="SailTropics Portolano" xmlns="http://www.topografix.com/GPX/1/1"><metadata><name>bahamas — ancoraggi</name><desc>Waypoint ancoraggi bahamas — WGS84 — Portolano SailTropics</desc><time>2026-08-28T11:54:43.421951+00:00</time><author><name>SailTropics</name></author><link href="https://ghitabbino.github.io/portolano/">Portolano</link></metadata><wpt lat="25.080100" lon="-77.320700"><name>Hurricane Hole — Paradise</name><desc>Hurricane Hole — Paradise</desc><sym>Anchor</sym><type>Anchorage</type><extensions><slug /></extensions></wpt><wpt lat="25.082700" lon="-77.322000"><name>Atlantis Marina</name><desc>Atlantis Marina</desc><sym>Anchor</sym><type>Anchorage</type><extensions><slug /></extensions></wpt><wpt lat="24.709200" lon="-76.823000"><name>Highbourne Cay</name><desc>Highbourne Cay</desc><sym>Anchor</sym><type>Anchorage</type><extensions><slug /></extensions></wpt><wpt lat="24.592200" lon="-76.812700"><name>Norman’s Cay</name><desc>Norman’s Cay</desc><sym>Anchor</sym><type>Anchorage</type><extensions><slug /></extensions></wpt><wpt lat="24.395000" lon="-76.632000"><name>Warderick Wells — Park</name><desc>Warderick Wells — Park</desc><sym>Anchor</sym><type>Anchorage</type><extensions><slug /></extensions></wpt><wpt lat="24.261800" lon="-76.512800"><name>Cambridge — Compass</name><desc>Cambridge — Compass</desc><sym>Anchor</sym><type>Anchorage</type><extensions><slug /></extensions></wpt><wpt lat="24.173500" lon="-76.448500"><name>Staniel Cay</name><desc>Staniel Cay</desc><sym>Anchor</sym><type>Anchorage</type><extensions><slug /></extensions></wpt><wpt lat="23.504700" lon="-75.766000"><name>Georgetown — Exuma</name><desc>Georgetown — Exuma</desc><sym>Anchor</sym><type>Anchorage</type><extensions><slug /></extensions></wpt></gpx>