<?xml version='1.0' encoding='utf-8'?>
<gpx version="1.1" creator="SailTropics Portolano" xmlns="http://www.topografix.com/GPX/1/1"><metadata><name>colombia — ancoraggi</name><desc>Waypoint ancoraggi colombia — WGS84 — Portolano SailTropics</desc><time>2026-08-28T11:57:26.733268+00:00</time><author><name>SailTropics</name></author><link href="https://ghitabbino.github.io/portolano/">Portolano</link></metadata><wpt lat="10.393000" lon="-75.554000"><name>Cartagena — Bahía</name><desc>Cartagena — Bahía — anc-cartagena-bahia</desc><sym>Anchor</sym><type>Anchorage</type><extensions><slug>anc-cartagena-bahia</slug></extensions></wpt></gpx>