<?xml version='1.0' encoding='utf-8'?>
<gpx version="1.1" creator="SailTropics Portolano" xmlns="http://www.topografix.com/GPX/1/1"><metadata><name>dominica — ancoraggi</name><desc>Waypoint ancoraggi dominica — WGS84 — Portolano SailTropics</desc><time>2026-08-28T11:54:43.423199+00:00</time><author><name>SailTropics</name></author><link href="https://ghitabbino.github.io/portolano/">Portolano</link></metadata><wpt lat="15.583180" lon="-61.462160"><name>Prince Rupert Bay / Portsmouth</name><desc>Prince Rupert Bay / Portsmouth — campo boe PAYS — anc-prince-rupert</desc><sym>Anchor</sym><type>Anchorage</type><extensions><slug>anc-prince-rupert</slug></extensions></wpt><wpt lat="15.600000" lon="-61.483300"><name>Douglas Bay — moorings TanTan </name><desc>Douglas Bay — moorings TanTan / Bongo — anc-douglas-bay</desc><sym>Anchor</sym><type>Anchorage</type><extensions><slug>anc-douglas-bay</slug></extensions></wpt><wpt lat="15.578000" lon="-61.475000"><name>Picard / Secret Bay (Portsmout</name><desc>Picard / Secret Bay (Portsmouth ovest) — anc-picard-secret-bay</desc><sym>Anchor</sym><type>Anchorage</type><extensions><slug>anc-picard-secret-bay</slug></extensions></wpt><wpt lat="15.618000" lon="-61.499000"><name>Anse Couleuvre / Pointe Ronde </name><desc>Anse Couleuvre / Pointe Ronde (NW estremo) — anc-anse-couleuvre</desc><sym>Anchor</sym><type>Anchorage</type><extensions><slug>anc-anse-couleuvre</slug></extensions></wpt><wpt lat="15.513000" lon="-61.470000"><name>North of Dublanc (ansa interme</name><desc>North of Dublanc (ansa intermedia) — anc-dublanc-nord</desc><sym>Anchor</sym><type>Anchorage</type><extensions><slug>anc-dublanc-nord</slug></extensions></wpt><wpt lat="15.444000" lon="-61.430000"><name>Mero (baia di Mero Beach)</name><desc>Mero (baia di Mero Beach) — anc-mero</desc><sym>Anchor</sym><type>Anchorage</type><extensions><slug>anc-mero</slug></extensions></wpt><wpt lat="15.284700" lon="-61.380000"><name>Roseau (Point of Entry) — anco</name><desc>Roseau (Point of Entry) — ancoraggio + boe private — anc-roseau</desc><sym>Anchor</sym><type>Anchorage</type><extensions><slug>anc-roseau</slug></extensions></wpt><wpt lat="15.276000" lon="-61.381000"><name>Pointe Michael / Newtown (sud </name><desc>Pointe Michael / Newtown (sud Roseau) — anc-pointe-michael</desc><sym>Anchor</sym><type>Anchorage</type><extensions><slug>anc-pointe-michael</slug></extensions></wpt><wpt lat="15.233000" lon="-61.365000"><name>Soufriere Bay — Champagne Reef</name><desc>Soufriere Bay — Champagne Reef (riserva SSMR) — anc-soufriere-champagne</desc><sym>Anchor</sym><type>Anchorage</type><extensions><slug>anc-soufriere-champagne</slug></extensions></wpt><wpt lat="15.210000" lon="-61.363000"><name>Scotts Head (villaggio/penisol</name><desc>Scotts Head (villaggio/penisola Cachacrou, lato caraibico) — anc-scotts-head</desc><sym>Anchor</sym><type>Anchorage</type><extensions><slug>anc-scotts-head</slug></extensions></wpt><wpt lat="15.270000" lon="-61.379000"><name>Loubiere / Pottersville (sud R</name><desc>Loubiere / Pottersville (sud Roseau) — anc-loubiere-pottersville</desc><sym>Anchor</sym><type>Anchorage</type><extensions><slug>anc-loubiere-pottersville</slug></extensions></wpt></gpx>